ONEWEB-0567             
1 55147U 23004H   23026.67601499  .00004439  00000+0  43469-3 0  9994
2 55147  86.5091 278.4793 0014851 164.9834 195.1838 14.91978913  2602
ONEWEB-0569             
1 55148U 23004J   23026.95137758  .00004202  00000+0  41818-3 0  9992
2 55148  86.5102 278.3630 0013310 154.5651 205.6234 14.91342142  2646
ONEWEB-0570             
1 55149U 23004K   23026.61512346  .00004771  00000+0  47430-3 0  9993
2 55149  86.5098 278.5113 0013573 156.4533 203.7318 14.91415298  2599
ONEWEB-0571             
1 55150U 23004L   23026.94549528  .00004067  00000+0  39909-3 0  9993
2 55150  86.5126 278.3644 0014875 162.1027 198.0728 14.91873491  2648
ONEWEB-0572             
1 55151U 23004M   23026.61648447  .00008566  00000+0  85631-3 0  9999
2 55151  86.5117 278.5189 0013119 154.3843 205.8038 14.91288114  2591
ONEWEB-0573             
1 55152U 23004N   23026.61582042  .00004952  00000+0  49328-3 0  9996
2 55152  86.5111 278.5184 0013539 157.7000 202.4819 14.91343200  2597
ONEWEB-0588             
1 55153U 23004P   23026.62294273  .00005585  00000+0  56615-3 0  9994
2 55153  86.5128 278.5252 0010530 154.8621 205.3121 14.90698374  2599
ONEWEB-0598             
1 55154U 23004Q   23026.58334491 -.00581174  00000+0 -75779-1 0  9992
2 55154  86.5742 278.5691 0011319 151.2524 288.1755 14.83124543  1302
ONEWEB-0599             
1 55155U 23004R   23026.95086368  .00004434  00000+0  44086-3 0  9997
2 55155  86.5114 278.3697 0013496 155.2807 204.9070 14.91388321  2645
ONEWEB-0614             
1 55156U 23004S   23027.08334491 -.00094446  00000+0 -11837-1 0  9996
2 55156  86.5760 278.3513 0011593 150.1743  89.1478 14.82834491  2659
ONEWEB-0616             
1 55157U 23004T   23026.61782340  .00004987  00000+0  49910-3 0  9999
2 55157  86.5099 278.5127 0012648 154.0820 206.1044 14.91162285  2597
ONEWEB-0617             
1 55158U 23004U   23026.58334491 -.00567517  00000+0 -75904-1 0  9991
2 55158  86.5839 278.5889 0009758 153.7171 248.3886 14.82028884  1304
ONEWEB-0618             
1 55159U 23004V   23026.95264642  .00004527  00000+0  45202-3 0  9998
2 55159  86.5114 278.3698 0012833 152.9756 207.2143 14.91234939  2643
ONEWEB-0619             
1 55160U 23004W   23026.94963066  .00004037  00000+0  39997-3 0  9995
2 55160  86.5107 278.3644 0013940 155.7194 204.4693 14.91501609  2645
ONEWEB-0620             
1 55161U 23004X   23027.08334491 -.00577382  00000+0 -76645-1 0  9995
2 55161  86.5788 278.3529 0011092 152.2470  67.5195 14.82369173  2652
ONEWEB-0621             
1 55162U 23004Y   23027.08334491 -.00692082  00000+0 -12297+0 0  9992
2 55162  86.6218 278.4974 0008459 156.0373  20.2415 14.70022215  2655
ONEWEB-0622             
1 55163U 23004Z   23026.75001157 -.00547167  00000+0 -72540-1 0  9998
2 55163  86.5821 278.5150 0010582 155.5891  61.6225 14.82298567  2613
ONEWEB-0623             
1 55164U 23004AA  23026.67751154  .00000514  00000+0  47846-4 0  9991
2 55164  86.5086 278.4804 0014879 162.9609 197.2122 14.91851777  2603
ONEWEB-0624             
1 55165U 23004AB  23026.94396113  .00004352  00000+0  42581-3 0  9996
2 55165  86.5122 278.3628 0014760 164.4274 195.7411 14.92012413  2647
ONEWEB-0625             
1 55166U 23004AC  23026.75126976  .00004101  00000+0  40925-3 0  9996
2 55166  86.5102 278.4535 0012970 154.1229 206.0650 14.91232679  2616
ONEWEB-0626             
1 55167U 23004AD  23027.01071398  .00004072  00000+0  39799-3 0  9998
2 55167  86.5096 278.3302 0014988 164.8904 195.2774 14.92038712  2652
ONEWEB-0627             
1 55168U 23004AE  23026.94530712  .00003945  00000+0  38690-3 0  9997
2 55168  86.5094 278.3604 0014842 162.8020 197.3714 14.91888376  2646
ONEWEB-0628             
1 55169U 23004AF  23027.01177186  .00000840  00000+0  79975-4 0  9992
2 55169  86.5120 278.3326 0015174 161.9832 198.1937 14.91932119  2650
ONEWEB-0629             
1 55170U 23004AG  23027.01003584  .00004651  00000+0  45423-3 0  9998
2 55170  86.5103 278.3307 0015191 165.9797 194.1855 14.92097374  2656
ONEWEB-0631             
1 55171U 23004AH  23026.94594012  .00004193  00000+0  41197-3 0  9996
2 55171  86.5119 278.3639 0014744 161.4226 198.7544 14.91833212  2645
ONEWEB-0709             
1 55172U 23004AJ  23026.75001157 -.00616294  00000+0 -78354-1 0  9995
2 55172  86.5635 278.4853 0011131 154.0288 110.1825 14.84318058  2605
ONEWEB-0710             
1 55173U 23004AK  23026.94685720  .00004064  00000+0  40009-3 0  9993
2 55173  86.5107 278.3636 0014587 160.1921 199.9876 14.91751981  2647
ONEWEB-0711             
1 55174U 23004AL  23026.58334491 -.00603503  00000+0 -80914-1 0  9992
2 55174  86.5799 278.5778 0009948 155.0509 253.9691 14.82081098  1307
ONEWEB-0713             
1 55175U 23004AM  23027.08334491 -.00570744  00000+0 -77976-1 0  9993
2 55175  86.5877 278.3695 0010059 148.6869  33.0497 14.81154407  2668
ONEWEB-0715             
1 55176U 23004AN  23026.58334491 -.00565691  00000+0 -74624-1 0  9990
2 55176  86.5804 278.5841 0009991 154.6852 263.6572 14.82590737  1302
ONEWEB-0716             
1 55177U 23004AP  23026.61466399  .00004782  00000+0  47488-3 0  9995
2 55177  86.5116 278.5174 0013705 156.5594 203.6261 14.91454100  2594
ONEWEB-0717             
1 55178U 23004AQ  23026.58334491  .00074344  00000+0  74840-2 0  9991
2 55178  86.5082 278.5321 0010812 155.2016 359.3963 14.90774577  1300
ONEWEB-0719             
1 55179U 23004AR  23026.95348267  .00004503  00000+0  45046-3 0  9996
2 55179  86.5097 278.3650 0012513 152.8083 207.3802 14.91157128  2647
SJ-23 AKM               
1 55180U 23002C   23026.31062420 -.00000282  00000+0  00000+0 0  9998
2 55180   0.5236  95.1298 0001756 279.5821 345.2622  0.99359761   108
SS-1                    
1 55181U 98067UY  23026.04861902  .00090229  00000+0  13758-2 0  9990
2 55181  51.6412 312.3107 0003913 240.2893 119.7708 15.53700066  3067
HSKSAT                  
1 55182U 98067UZ  23026.37281461  .00054908  00000+0  86478-3 0  9997
2 55182  51.6416 310.7262 0003333 233.3088 126.7596 15.53023568  3126
OPTIMAL-1               
1 55183U 98067VA  23026.37482188  .00047968  00000+0  76611-3 0  9993
2 55183  51.6422 310.7395 0004025 341.2390  18.8452 15.52691906  3123
APSTAR 6E               
1 55239U 23005A   23023.24244036 -.00000004  00000+0  00000+0 0  9992
2 55239  33.3212  13.0973 3305985 140.1267 317.2134  8.23856059  1308
CZ-2D R/B               
1 55240U 23005B   23025.13387347  .00002262 -71514-5  00000+0 0  9999
2 55240  28.5070 294.2454 0161031 254.0830 253.1331 15.89554322  1962
2023-006A               
1 55242U 23006A   23026.79917714  .00023100  00000+0  11448-2 0  9992
2 55242  43.2017 131.4901 0009530   1.2987 140.7654 15.17308537  2054
2023-006B               
1 55243U 23006B   23026.80079171  .00011353  00000+0  57438-3 0  9998
2 55243  43.2020 131.4989 0008909 359.6630 143.9106 15.17018708  2054
2023-006C               
1 55244U 23006C   23026.97318287  .00010549  00000+0  54521-3 0  9997
2 55244  43.2010 130.6266 0006034 345.9117 347.9163 15.16341275  2021
2023-006D               
1 55245U 23006D   23026.80276119  .00033709  00000+0  16727-2 0  9995
2 55245  43.2004 131.5142 0006885 349.4790 154.5204 15.17115955  2010
2023-007A               
1 55248U 23007A   23027.01796388  .00017362  00000+0  70851-3 0  9994
2 55248  97.3774 101.2882 0008746 194.6075 287.9468 15.24447087  1818
2023-007B               
1 55249U 23007B   23026.81331235  .00020215  00000+0  81493-3 0  9993
2 55249  97.3785 101.0953 0008291 206.8402 248.4518 15.24828575  1771
2023-007C               
1 55250U 23007C   23026.81360536  .00028282  00000+0  11247-2 0  9992
2 55250  97.3755 101.0961 0008010 210.1125 258.9584 15.25217047  1774
2023-007D               
1 55251U 23007D   23026.81311395  .00027253  00000+0  10822-2 0  9997
2 55251  97.3814 101.1054 0008562 213.4900 255.5649 15.25270284  1771
2023-007E               
1 55252U 23007E   23026.95671111  .00091416  00000+0  36488-2 0  9996
2 55252  97.3732 101.2330 0007538 215.1605 320.0826 15.24757364  1797
2023-007F               
1 55253U 23007F   23026.81457341  .00018706  00000+0  74458-3 0  9990
2 55253  97.3760 101.1001 0008092 219.2480 262.4189 15.25273279  1773
2023-007G               
1 55254U 23007G   23026.81172131  .00020729  00000+0  82227-3 0  9993
2 55254  97.3798 101.1041 0007793 222.5327 246.5248 15.25368482  1773
2023-007H               
1 55255U 23007H   23026.81049332  .00035012  00000+0  13589-2 0  9995
2 55255  97.3730 101.1011 0008460 231.3949 249.1863 15.25980191  1776
2023-007J               
1 55256U 23007J   23026.80160052  .00025742  00000+0  10064-2 0  9992
2 55256  97.3764 101.0961 0007977 232.3117 196.9041 15.25809509  1777
2023-007K               
1 55257U 23007K   23026.81128690  .00013712  00000+0  54142-3 0  9996
2 55257  97.3758 101.1029 0007722 235.6482 244.7781 15.25614471  1771
2023-007L               
1 55258U 23007L   23026.81120337  .00017050  00000+0  66885-3 0  9993
2 55258  97.3770 101.1079 0007581 237.2018 248.0247 15.25782721  1775
2023-007M               
1 55259U 23007M   23026.81152808  .00015613  00000+0  60787-3 0  9990
2 55259  97.3728 101.1054 0007775 248.6272 250.5242 15.26052233  1777
2023-007N               
1 55260U 23007N   23026.80636156  .00022079  00000+0  83821-3 0  9992
2 55260  97.3727 101.1135 0007888 268.2030 231.3590 15.26817861  1772
2023-007P               
1 55261U 23007P   23026.80559361  .00019017  00000+0  72113-3 0  9995
2 55261  97.3726 101.1138 0008627 269.1838 230.5575 15.26880704  1773
USA 342                 
1 55263U 23008A   23026.55062090  .00000028  00000+0  00000+0 0  9992
2 55263   0.0547  28.0203 0001970 242.7607 235.7941  1.02189749   102
NAVSTAR 82 (USA 343)    
1 55268U 23009A   23019.56958773  .00000203  00000+0  00000+0 0  9998
2 55268  55.0137 201.7698 5934866 270.2550  26.1276  4.03893074    40
